CUTE-1 (CO-55)          
1 27844U 03031E   26198.94610370  .00000130  00000+0  75281-4 0  9998
2 27844  98.6744 207.1188 0010863  95.5982 264.6436 14.24352549196059
CUBESAT XI-IV (CO-57)   
1 27848U 03031J   26198.95002441  .00000107  00000+0  66203-4 0  9995
2 27848  98.6776 206.8106 0010632 112.1739 248.0569 14.23635431195756
CUBESAT XI-V            
1 28895U 05043F   26197.95849456  .00000631  00000+0  10709-3 0  9998
2 28895  98.3017 354.2118 0015312 110.0551 250.2305 14.72704810106133
CUTE-1.7+APD II (CO-65) 
1 32785U 08021C   26198.93845789  .00002148  00000+0  13739-3 0  9995
2 32785  97.8298 181.0062 0006849 288.2126  71.8356 15.09714947989838
CANX-2                  
1 32790U 08021H   26198.92378250  .00001366  00000+0  98698-4 0  9993
2 32790  97.8658 179.3065 0008694 307.2234  52.8198 15.05814042989431
SEEDS II (CO-66)        
1 32791U 08021J   26198.93922495  .00010382  00000+0  32084-3 0  9995
2 32791  97.7530 198.3304 0003381 150.6464 209.4968 15.33723545992000
SWISSCUBE               
1 35932U 09051B   26198.68225148  .00000433  00000+0  95101-4 0  9998
2 35932  98.4004 107.0987 0007946 112.4041 247.8002 14.62533257893618
BEESAT-1                
1 35933U 09051C   26198.70764305  .00000353  00000+0  80631-4 0  9998
2 35933  98.3931 106.6958 0006240 123.4432 236.7366 14.61763986893648
ITUPSAT1                
1 35935U 09051E   26198.17721015  .00000337  00000+0  79459-4 0  9990
2 35935  98.4015 105.3171 0008204 137.6090 222.5745 14.60480346893117
TISAT 1                 
1 36799U 10035E   26198.80977816  .00011191  00000+0  35592-3 0  9994
2 36799  98.0716 148.1049 0004659 115.0155 245.1569 15.32792576872394
STRAND-1                
1 39090U 13009E   26198.48055263  .00000107  00000+0  50178-4 0  9995
2 39090  98.3936  17.9715 0009516 134.8937 225.3024 14.37179617701414
BRITE-AUSTRIA           
1 39091U 13009F   26198.78518510  .00000059  00000+0  34436-4 0  9993
2 39091  98.4011  17.4659 0010906 143.4124 216.7810 14.36553072701441
NEE-01 PEGASO           
1 39151U 13018B   26198.87882650  .00001460  00000+0  14326-3 0  9991
2 39151  98.1261 344.0523 0013625  66.4608 293.8041 14.93796575715282
POPACS 2                
1 39269U 13055E   26198.49805394  .00014570 -92442-6  23743-3 0  9998
2 39269  80.9912 109.4836 0414730  96.4949 268.3649 14.92080506667733
POPACS 3                
1 39270U 13055F   26198.96495125  .00007864  00000+0  18701-3 0  9996
2 39270  81.0003 195.7978 0548415 336.2170  21.4518 14.56706423643035
ZACUBE-1 (TSHEPISOSAT)  
1 39417U 13066B   26198.86726362  .00001255  00000+0  10038-3 0  9993
2 39417  97.8005 161.3542 0044051 146.6146 213.7870 15.01335799685335
WNISAT-1                
1 39423U 13066H   26198.88649676  .00000569  00000+0  11136-3 0  9991
2 39423  97.7239 345.8695 0164022 134.8849 226.5805 14.58123458671207
TRITON-1                
1 39427U 13066M   26198.95397825  .00000660  00000+0  84539-4 0  9999
2 39427  97.8223 108.0582 0090780 133.2295 227.6544 14.81799958678643
GOMX-1                  
1 39430U 13066Q   26198.82667955  .00000615  00000+0  99363-4 0  9994
2 39430  97.6462  37.3556 0128009 339.7357  19.8795 14.69546025674414
CUBEBUG-2 (LO-74)       
1 39440U 13066AA  26198.80728606  .00001941  00000+0  18256-3 0  9998
2 39440  97.8919 147.9224 0055605 286.5269  72.9846 14.93977366681560
NEE-02 KRYSAOR          
1 39441U 13066AB  26198.29430495  .00001069  00000+0  12208-3 0  9990
2 39441  97.8897 137.2978 0065226 332.3487  27.4265 14.86744048680678
FUNCUBE-1 (AO-73)       
1 39444U 13066AE  26198.87735123  .00004433  00000+0  27372-3 0  9999
2 39444  97.8295 170.9747 0037943  98.9940 261.5586 15.09839207684292
UWE-3                   
1 39446U 13066AG  26198.82646848  .00002032  00000+0  17707-3 0  9995
2 39446  97.8719 155.1139 0047603 215.4548 144.3506 14.97209607682164
BRITE-CA1 (TORONTO)     
1 40020U 14033L   26198.88428013  .00000523  00000+0  86054-4 0  9993
2 40020  97.9775 327.2528 0078657 177.6498 182.5095 14.72725699646734
DUCHIFAT-1              
1 40021U 14033M   26198.90862875  .00101790  00000+0  78804-3 0  9996
2 40021  98.0416 262.5554 0003092 233.4347 126.6630 15.71547527660567
NANOSATC-BR1            
1 40024U 14033Q   26198.05591393  .00010197  00000+0  32893-3 0  9997
2 40024  98.0704 233.1102 0005253  91.9307 268.2534 15.32365382658553
QB50P1                  
1 40025U 14033R   26198.85775342  .00004537  00000+0  22226-3 0  9994
2 40025  98.0967 212.1646 0010483 116.9790 243.2514 15.18689290657685
QB50P2                  
1 40032U 14033Y   26198.93725984  .00004058  00000+0  21790-3 0  9991
2 40032  98.0766 197.7424 0009243  76.1701 284.0558 15.15528215657321
PERSEUS-M2              
1 40037U 14033AD  26198.90681803  .00000162  00000+0  20071-4 0  9998
2 40037  97.9987 150.0782 0011040 190.2026 169.8972 14.95592580655370
PERSEUS-M1              
1 40039U 14033AF  26198.81040331  .00000734  00000+0  71303-4 0  9994
2 40039  97.9655 143.4486 0011082 187.5643 172.5412 14.95720896655217
